NORAD_CAT_ID,OBJECT_NAME,OBJECT_TYPE,EPOCH,MEAN_MOTION,ECCENTRICITY,INCLINATION,RA_OF_ASC_NODE,ARG_OF_PERICENTER,MEAN_ANOMALY,BSTAR,MEAN_MOTION_DOT,MEAN_MOTION_DDOT,TLE_LINE0,TLE_LINE1,TLE_LINE2,SEMIMAJOR_AXIS,PERIOD,APOGEE,PERIGEE,DECAYED
54104.0,STARLINK-5203,PAYLOAD,2023-01-28 05:53:00,15.73251156,9.8e-05,53.2141,14.7946,98.3386,261.7746,0.00012913,0.0001758,0.0,0 STARLINK-5203,1 54104U 22136BF  23028.24514033  .00017580  00000-0  12913-3 0  9995,2 54104  53.2141  14.7946 0000980  98.3386 261.7746 15.73251156 16182,6727.749,91.53,350.274,348.955,0.0
54104.0,STARLINK-5203,PAYLOAD,2023-01-28 22:39:18,15.73192322,0.0001422,53.2145,11.3368,84.1525,275.9657,-1.9518e-05,-3.357e-05,0.0,0 STARLINK-5203,1 54104U 22136BF  23028.94396875 -.00003357  00000-0 -19518-4 0  9992,2 54104  53.2145  11.3368 0001422  84.1525 275.9657 15.73192322 16296,6727.917,91.534,350.739,348.825,0.0
54104.0,STARLINK-5203,PAYLOAD,2023-01-29 04:45:13,15.73221234,0.0001712,53.2147,10.0788,98.6618,261.4596,5.5921e-05,7.241e-05,0.0,0 STARLINK-5203,1 54104U 22136BF  23029.19807318  .00007241  00000-0  55921-4 0  9991,2 54104  53.2147  10.0788 0001712  98.6618 261.4596 15.73221234 16337,6727.835,91.532,350.851,348.548,0.0
54104.0,STARLINK-5203,PAYLOAD,2023-01-29 07:48:11,15.73203843,0.0001882,53.2152,9.4504,81.5871,278.5363,6.3937e-06,2.77e-06,0.0,0 STARLINK-5203,1 54104U 22136BF  23029.32513280  .00000277  00000-0  63937-5 0  9997,2 54104  53.2152   9.4504 0001882  81.5871 278.5363 15.73203843 16350,6727.884,91.533,351.015,348.483,0.0
54104.0,STARLINK-5203,PAYLOAD,2023-01-30 08:11:52,15.73223721,0.0001647,53.2141,4.4203,94.9119,265.2089,7.828e-05,0.0001039,0.0,0 STARLINK-5203,1 54104U 22136BF  23030.34157507  .00010390  00000-0  78280-4 0  9990,2 54104  53.2141   4.4203 0001647  94.9119 265.2089 15.73223721 16514,6727.828,91.532,350.801,348.584,0.0
54104.0,STARLINK-5203,PAYLOAD,2023-01-30 21:55:11,15.73203665,0.0001808,53.2144,1.5941,69.5895,290.5319,-2.6909e-06,-9.99e-06,0.0,0 STARLINK-5203,1 54104U 22136BF  23030.91333175 -.00000999  00000-0 -26909-5 0  9998,2 54104  53.2144   1.5941 0001808  69.5895 290.5319 15.73203665 16604,6727.885,91.533,350.966,348.533,0.0
54104.0,STARLINK-5203,PAYLOAD,2023-01-31 07:04:04,15.73215315,0.0002009,53.2133,359.7058,71.1242,288.9996,3.7658e-05,4.67e-05,0.0,0 STARLINK-5203,1 54104U 22136BF  23031.29449716  .00004670  00000-0  37658-4 0  9999,2 54104  53.2133 359.7058 0002009  71.1242 288.9996 15.73215315 16661,6727.852,91.532,351.068,348.365,0.0
54104.0,STARLINK-5203,PAYLOAD,2023-01-31 22:18:52,15.73215476,0.0001557,53.2124,356.5583,89.9209,270.1989,3.2843e-05,3.994e-05,0.0,0 STARLINK-5203,1 54104U 22136BF  23031.92977143  .00003994  00000-0  32843-4 0  9998,2 54104  53.2124 356.5583 0001557  89.9209 270.1989 15.73215476 16298,6727.851,91.532,350.764,348.669,0.0
54104.0,STARLINK-5203,PAYLOAD,2023-02-01 07:27:44,15.73221526,0.0001234,53.2142,354.6751,80.6727,279.4433,4.3176e-05,5.449e-05,0.0,0 STARLINK-5203,1 54104U 22136BF  23032.31093531  .00005449  00000-0  43176-4 0  9990,2 54104  53.2142 354.6751 0001234  80.6727 279.4433 15.73221526 16827,6727.834,91.532,350.529,348.869,0.0
54104.0,STARLINK-5203,PAYLOAD,2023-02-02 03:16:59,15.7320662,0.0001392,53.2143,350.587,78.2368,281.8808,9.1197e-06,6.6e-06,0.0,0 STARLINK-5203,1 54104U 22136BF  23033.13680391  .00000660  00000-0  91197-5 0  9994,2 54104  53.2143 350.5870 0001392  78.2368 281.8808 15.73206620 16959,6727.876,91.533,350.678,348.805,0.0
54104.0,STARLINK-5203,PAYLOAD,2023-02-02 06:19:57,15.73213947,0.0001286,53.2143,349.9569,93.786,266.3307,3.3216e-05,4.047e-05,0.0,0 STARLINK-5203,1 54104U 22136BF  23033.26385721  .00004047  00000-0  33216-4 0  9997,2 54104  53.2143 349.9569 0001286  93.7860 266.3307 15.73213947 16500,6727.855,91.532,350.586,348.855,0.0
54104.0,STARLINK-5203,PAYLOAD,2023-02-03 06:43:38,15.73225057,9.88e-05,53.2146,344.9293,90.4958,269.6175,0.00011857,0.0001607,0.0,0 STARLINK-5203,1 54104U 22136BF  23034.28030372  .00016070  00000-0  11857-3 0  9994,2 54104  53.2146 344.9293 0000988  90.4958 269.6175 15.73225057 17136,6727.824,91.532,350.353,349.024,0.0
54104.0,STARLINK-5203,PAYLOAD,2023-02-04 05:35:50,15.73222801,0.0001303,53.2148,340.2104,104.2096,255.9069,8.4732e-05,0.00011299,0.0,0 STARLINK-5203,1 54104U 22136BF  23035.23322145  .00011299  00000-0  84732-4 0  9993,2 54104  53.2148 340.2104 0001303 104.2096 255.9069 15.73222801 17287,6727.83,91.532,350.572,348.819,0.0
54104.0,STARLINK-5203,PAYLOAD,2023-02-04 20:50:38,15.73208622,9.06e-05,53.215,337.0694,101.4056,258.7066,6.4194e-05,8.402e-05,0.0,0 STARLINK-5203,1 54104U 22136BF  23035.86849999  .00008402  00000-0  64194-4 0  9995,2 54104  53.2150 337.0694 0000906 101.4056 258.7066 15.73208622 17385,6727.871,91.533,350.345,349.126,0.0
54104.0,STARLINK-5203,PAYLOAD,2023-02-05 05:59:31,15.73216712,7.66e-05,53.215,335.1834,92.943,267.1678,6.3992e-05,8.377e-05,0.0,0 STARLINK-5203,1 54104U 22136BF  23036.24966535  .00008377  00000-0  63992-4 0  9990,2 54104  53.2150 335.1834 0000766  92.9430 267.1678 15.73216712 16970,6727.848,91.532,350.228,349.197,0.0
54104.0,STARLINK-5203,PAYLOAD,2023-02-06 04:51:43,15.73216401,0.0001074,53.2148,330.4658,107.6499,252.4638,5.8783e-05,7.643e-05,0.0,0 STARLINK-5203,1 54104U 22136BF  23037.20258438  .00007643  00000-0  58783-4 0  9990,2 54104  53.2148 330.4658 0001074 107.6499 252.4638 15.73216401 17598,6727.848,91.532,350.436,348.991,0.0
54104.0,STARLINK-5203,PAYLOAD,2023-02-07 05:15:24,15.73209261,7.89e-05,53.2145,325.4379,69.6816,290.4289,1.3916e-05,1.335e-05,0.0,0 STARLINK-5203,1 54104U 22136BF  23038.21902941  .00001335  00000-0  13916-4 0  9998,2 54104  53.2145 325.4379 0000789  69.6816 290.4289 15.73209261 17759,6727.869,91.533,350.265,349.203,0.0
54104.0,STARLINK-5203,PAYLOAD,2023-02-07 18:58:43,15.73217043,0.0001033,53.2148,322.6086,54.3343,305.7773,2.3618e-05,2.698e-05,0.0,0 STARLINK-5203,1 54104U 22136BF  23038.79077660  .00002698  00000-0  23618-4 0  9995,2 54104  53.2148 322.6086 0001033  54.3343 305.7773 15.73217043 17378,6727.847,91.532,350.407,349.017,0.0
54104.0,STARLINK-5203,PAYLOAD,2023-02-07 23:33:10,15.73198202,9.34e-05,53.2148,321.6622,84.1977,275.915,-1.7777e-05,-3.113e-05,0.0,0 STARLINK-5203,1 54104U 22136BF  23038.98136607 -.00003113  00000-0 -17777-4 0  9997,2 54104  53.2148 321.6622 0000934  84.1977 275.9150 15.73198202 17873,6727.9,91.533,350.394,349.137,0.0
54104.0,STARLINK-5203,PAYLOAD,2023-02-08 22:25:22,15.7320936,9.37e-05,53.2147,316.9496,86.0185,274.0942,1.6072e-05,1.638e-05,0.0,0 STARLINK-5203,1 54104U 22136BF  23039.93428392  .00001638  00000-0  16072-4 0  9993,2 54104  53.2147 316.9496 0000937  86.0185 274.0942 15.73209360 17555,6727.868,91.533,350.364,349.103,0.0
54104.0,STARLINK-5203,PAYLOAD,2023-02-09 04:31:17,15.7320796,9.42e-05,53.2142,315.6922,69.8684,290.2438,3.1252e-05,3.77e-05,0.0,0 STARLINK-5203,1 54104U 22136BF  23040.18839436  .00003770  00000-0  31252-4 0  9993,2 54104  53.2142 315.6922 0000942  69.8684 290.2438 15.73207960 18060,6727.872,91.533,350.371,349.104,0.0
54104.0,STARLINK-5203,PAYLOAD,2023-02-10 00:20:32,15.73206591,0.0001006,53.2143,311.6037,94.1271,265.9864,3.1976e-05,3.871e-05,0.0,0 STARLINK-5203,1 54104U 22136BF  23041.01426191  .00003871  00000-0  31976-4 0  9991,2 54104  53.2143 311.6037 0001006  94.1271 265.9864 15.73206591 18194,6727.876,91.533,350.418,349.065,0.0
54104.0,STARLINK-5203,PAYLOAD,2023-02-10 03:23:29,15.73216653,0.0001277,53.2144,310.974,93.861,266.2556,4.7002e-05,5.986e-05,0.0,0 STARLINK-5203,1 54104U 22136BF  23041.14131647  .00005986  00000-0  47002-4 0  9990,2 54104  53.2144 310.9740 0001277  93.8610 266.2556 15.73216653 17743,6727.848,91.532,350.572,348.854,0.0
54104.0,STARLINK-5203,PAYLOAD,2023-02-10 23:12:44,15.73210883,0.0001675,53.2151,306.8858,90.7469,269.3743,3.3348e-05,4.064e-05,0.0,0 STARLINK-5203,1 54104U 22136BF  23041.96718015  .00004064  00000-0  33348-4 0  9994,2 54104  53.2151 306.8858 0001675  90.7469 269.3743 15.73210883 18343,6727.864,91.533,350.856,348.602,0.0
54104.0,STARLINK-5203,PAYLOAD,2023-02-11 00:44:12,15.73207669,7e-05,53.2144,306.5739,84.3431,275.7669,1.8396e-05,1.964e-05,0.0,0 STARLINK-5203,1 54104U 22136BF  23042.03070537  .00001964  00000-0  18396-4 0  9995,2 54104  53.2144 306.5739 0000700  84.3431 275.7669 15.73207669 17880,6727.873,91.533,350.209,349.267,0.0
54104.0,STARLINK-5203,PAYLOAD,2023-02-11 17:30:28,15.73230342,5.66e-05,53.214,303.1149,92.6099,267.4986,5.2121e-05,6.711e-05,0.0,0 STARLINK-5203,1 54104U 22136BF  23042.72950050  .00006711  00000-0  52121-4 0  9997,2 54104  53.2140 303.1149 0000566  92.6099 267.4986 15.73230342 18465,6727.809,91.531,350.054,349.293,0.0
54104.0,STARLINK-5203,PAYLOAD,2023-02-12 10:16:47,15.73180487,8.52e-05,53.2137,299.6576,107.5364,252.5749,-5.5796e-05,-8.435e-05,0.0,0 STARLINK-5203,1 54104U 22136BF  23043.42832513 -.00008435  00000-0 -55796-4 0  9996,2 54104  53.2137 299.6576 0000852 107.5364 252.5749 15.73180487 18571,6727.951,91.534,350.389,349.243,0.0
54104.0,STARLINK-5203,PAYLOAD,2023-02-13 19:49:21,15.73169452,0.0001002,53.2139,292.7417,122.6054,237.5063,-5.5095e-05,-8.333e-05,0.0,0 STARLINK-5203,1 54104U 22136BF  23044.82594613 -.00008333  00000-0 -55095-4 0  9996,2 54104  53.2139 292.7417 0001002 122.6054 237.5063 15.73169452 18798,6727.982,91.535,350.521,349.173,0.0
54104.0,STARLINK-5203,PAYLOAD,2023-02-14 01:55:21,15.72978486,7.26e-05,53.2131,291.4849,99.0279,261.0823,-0.00061147,-0.00084766,0.0,0 STARLINK-5203,1 54104U 22136BF  23045.08011434 -.00084766  00000-0 -61147-3 0  9998,2 54104  53.2131 291.4849 0000726  99.0279 261.0823 15.72978486 18838,6728.527,91.546,350.88,349.903,0.0
54104.0,STARLINK-5203,PAYLOAD,2023-02-14 06:29:58,15.72670182,4.37e-05,53.2132,290.5425,112.385,247.7217,-0.0013469,-0.00181456,0.0,0 STARLINK-5203,1 54104U 22136BF  23045.27081521 -.00181456  00000-0 -13469-2 0  9990,2 54104  53.2132 290.5425 0000437 112.3850 247.7217 15.72670182 18865,6729.406,91.564,351.565,350.977,0.0
